#aV2022  9  1  0  0  0.00000000     288 DD+AD WGS84 FIT  NGA
## 2225 345600.00000000   300.00000000 59823 0.0000000000000
+   32     1  2  3  4  5  6  7  8  9 10 11 12 13 14 15 16 17
+         18 19 20 21 22 23 24 25 26 27 28 29 30 31 32  0  0
+          0  0  0  0  0  0  0  0  0  0  0  0  0  0  0  0  0
+          0  0  0  0  0  0  0  0  0  0  0  0  0  0  0  0  0
+          0  0  0  0  0  0  0  0  0  0  0  0  0  0  0  0  0
++         2  2  2  2  2  2  2  2  2  2  2  2  2  2  2  2  2
++         2  2  2  2  2  2  2  2  2  2  2  2  2  2  2  0  0
++         0  0  0  0  0  0  0  0  0  0  0  0  0  0  0  0  0
++         0  0  0  0  0  0  0  0  0  0  0  0  0  0  0  0  0
++         0  0  0  0  0  0  0  0  0  0  0  0  0  0  0  0  0
%c cc cc ccc ccc cccc cccc cccc cccc ccccc ccccc ccccc ccccc
%c cc cc ccc ccc cccc cccc cccc cccc ccccc ccccc ccccc ccccc
%f  0.0000000  0.000000000  0.00000000000  0.000000000000000
%f  0.0000000  0.000000000  0.00000000000  0.000000000000000
%i    0    0    0    0      0      0      0      0         0
%i    0    0    0    0      0      0      0      0         0
/*      NGA, ST. LOUIS,MO.                                  
/*   EPHEMERIS COMPUTED FROM 2 DAYS OF DATA                 
/*   EPOCHA v8 SMOOTHER                                     
/*   G2139 IERS2010 SATIGS SATAPC                           
*  2022  9  1 11 50  0.00000000
P  1  20907.270519  12299.484339  10899.643271    291.589391                    
V  1   8409.576257  11488.134012 -27965.321335     -0.067406                    
P  2 -19196.627297 -18236.306562    802.794862   -647.441267                    
V  2   2056.548739  -1869.860774  31967.994284      0.011669                    
P  3  13935.986413   5184.075360  21884.312363   -343.343745                    
V  3  -8179.328176  26825.705894  -1034.700079     -0.072363                    
P  4  24459.409438   2421.035668  10193.963106   -125.025768                    
V  4 -12200.237864   4835.590493  28041.091043      0.053739                    
P  5  -8574.728865 -17503.333856 -18160.404561    -95.037716                    
V  5   7194.085501 -21639.517660  17761.972782     -0.014185                    
P  6   -650.616141 -18868.441513  18713.995256    445.982237                    
V  6  16817.663215  16581.840186  17430.244074      0.132328                    
P  7  17096.448433  -2458.317548 -19886.550560    310.835392                    
V  7  17018.432060  19793.368984  11451.779208     -0.026950                    
P  8  18914.836665   7553.152987 -17272.239374    -82.814390                    
V  8 -20663.344102   6839.104235 -19334.042320     -0.015262                    
P  9  25629.696364  -7025.829290   -692.302218   -301.428185                    
V  9   1496.235362   2678.724821  31587.454787      0.045538                    
P 10 -11415.947245  22883.625184  -6405.954363     -1.359837                    
V 10    -29.892237  -8765.689619 -30850.090870     -0.017144                    
P 11 -10210.400664 -22554.974476   9658.431581    -13.710790                    
V 11   9743.977767   7815.158704  28511.810197     -0.020859                    
P 12 -13065.381433  -7500.767166  21616.417087   -271.435793                    
V 12  10210.587079 -26128.525765  -2759.368224     -0.059914                    
P 13 -10272.766625 -13340.543652 -20749.903642    379.110832                    
V 13  25721.559353  -3140.791516 -10620.972435      0.073565                    
P 14  13341.896068 -21496.894043  -7892.191450   -106.352194                    
V 14   -437.984955  10502.166629 -29424.341677      0.021974                    
P 15 -19750.556964  -6247.276496 -17217.988768    -32.570700                    
V 15  18978.221161  -9246.621680 -18591.978563      0.030855                    
P 16   2109.993802  21929.848723 -14769.038326   -522.721818                    
V 16  -8903.004939  16299.604539  23811.689973     -0.013150                    
P 17  18174.690318 -13122.326259  14724.320680    654.627566                    
V 17  17894.039764  -1453.352124 -24045.263768      0.039660                    
P 18 -16106.830700   3400.920337 -20881.541043     63.035059                    
V 18 -17180.938632 -20092.839910   9853.855650     -0.124658                    
P 19   8749.297617 -14690.041506  20010.936573    204.898666                    
V 19  25921.026106  -2075.362032 -12941.446881      0.050478                    
P 20  -1635.221451 -25697.172914  -6979.732106    490.016348                    
V 20   4130.061863  -8359.020357  29551.806446     -0.031179                    
P 21  21228.028936  16452.036519   2939.899021    159.944187                    
V 21    718.960005   3537.480280 -31003.583276     -0.003980                    
P 22  -5360.431915  15681.493065  21140.233182    320.074203                    
V 22 -25759.630472   2980.911013  -9093.788105      0.067306                    
P 23 -15119.003373  15469.904896 -15341.319761    -38.615734                    
V 23   3305.541291 -19298.590116 -22854.331909     -0.010053                    
P 24 -22037.723326 -13717.555553   6264.991819    150.097544                    
V 24  -4000.444723  -7940.477500 -29532.685074     -0.123799                    
P 25 -16324.486932   6557.070489  19527.857710    367.274640                    
V 25   5816.637844 -24897.432733  13298.076526      0.041620                    
P 26  -2226.305141  25788.334745  -5237.576731    226.519815                    
V 26  -5190.702676   5568.275733  30442.681820      0.017979                    
P 27   6681.508383  13819.316985 -21923.038551    215.590843                    
V 27 -26504.356993   6343.118148  -3736.210123     -0.030843                    
P 28   8862.001452 -25138.860306   1872.780956    340.113053                    
V 28   2880.969697   -711.986395 -31618.847898     -0.010490                    
P 29 -26262.924983   4250.498402   -277.111539   -547.833893                    
V 29   -616.847641  -2068.240113  32118.205747     -0.032510                    
P 30   8961.182483 -13238.906674 -21093.108358   -536.586603                    
V 30  18733.213326  19625.547486  -4592.499734     -0.003784                    
P 31   1505.484192  19896.886264  17156.771110   -191.777099                    
V 31 -16426.108235 -15165.318074  19330.969506     -0.013752                    
P 32 -14892.697927  15135.605509  15981.599458   -220.444131                    
V 32 -20021.456900   2742.781338 -21642.586109     -0.110169                    
EOF
